OBJECT_NAME,OBJECT_ID,EPOCH,MEAN_MOTION,ECCENTRICITY,INCLINATION,RA_OF_ASC_NODE,ARG_OF_PERICENTER,MEAN_ANOMALY,EPHEMERIS_TYPE,CLASSIFICATION_TYPE,NORAD_CAT_ID,ELEMENT_SET_NO,REV_AT_EPOCH,BSTAR,MEAN_MOTION_DOT,MEAN_MOTION_DDOT
STARLINK-3750,2022-041BC,2026-06-14T06:33:42.198048,15.08825524,.0001224,53.1595,15.4625,80.7931,279.3199,0,U,52311,999,23044,.50566E-4,.517E-5,0
STARLINK-3752,2022-041BD,2026-06-14T07:10:48.943776,15.08803932,.00015889,53.1603,15.2948,92.0712,268.0461,0,U,52312,999,23045,-.19160849E-3,-.3333E-4,0
STARLINK-3749,2022-041BE,2026-06-14T07:16:04.459296,15.08837170,.00013565,53.1600,15.3283,83.8586,276.2560,0,U,52313,999,23045,.31703649E-4,.217E-5,0
STARLINK-3889,2022-045A,2026-06-14T05:24:49.401792,15.08824908,.0001379,53.1599,135.6784,95.6123,264.5026,0,U,52331,999,23021,.89935E-4,.1143E-4,0
STARLINK-3831,2022-045B,2026-06-14T15:14:23.327808,15.08832146,.00013809,53.1600,133.8477,87.6584,272.4566,0,U,52332,999,23027,.31483165E-4,.213E-5,0
STARLINK-3847,2022-045C,2026-06-14T15:07:42.271968,15.08834529,.00013402,53.1602,133.8583,87.2216,272.8929,0,U,52333,999,23026,.41378087E-4,.371E-5,0
STARLINK-3880,2022-045D,2026-06-14T14:51:48.722688,15.08830373,.00014222,53.1602,133.9083,87.8074,272.3080,0,U,52334,999,23026,.18429385E-4,.5E-7,0
STARLINK-3814,2022-045E,2026-06-14T14:46:30.646272,15.08832387,.00014771,53.1602,133.9244,85.0358,275.0802,0,U,52335,999,23027,.25504036E-4,.118E-5,0
STARLINK-3823,2022-045F,2026-06-14T16:00:01.999584,15.12824154,.00012257,53.1601,133.4505,34.9850,40.3899,0,U,52336,999,566,.19030514E-2,.33678E-3,0
STARLINK-3797,2022-045G,2026-06-14T15:02:24.430560,15.08832334,.00013006,53.1596,133.8747,90.2585,269.8556,0,U,52337,999,23027,.4768884E-4,.471E-5,0
STARLINK-3792,2022-045J,2026-06-14T15:12:55.630944,15.08859507,.00011246,53.1603,133.4842,107.7549,252.3565,0,U,52339,999,23028,.28838002E-3,.4307E-4,0
STARLINK-3818,2022-045K,2026-06-14T04:01:19.661952,15.08832870,.00014828,53.1622,125.9376,83.4664,276.6497,0,U,52340,999,23033,.7756257E-5,-.165E-5,0
STARLINK-3843,2022-045L,2026-06-14T14:25:18.860736,15.08826884,.00014001,53.1618,133.9420,90.4380,269.6771,0,U,52341,999,23027,-.3139575E-4,-.787E-5,0
STARLINK-3850,2022-045M,2026-06-14T04:06:38.713824,15.08834338,.00013655,53.1608,126.0377,89.8516,270.2632,0,U,52342,999,23034,.29381552E-4,.18E-5,0
STARLINK-3849,2022-045N,2026-06-14T15:18:18.098208,15.08834651,.00013274,53.1605,133.8246,89.7915,270.3229,0,U,52343,999,23028,.51984321E-4,.539E-5,0
STARLINK-3851,2022-045P,2026-06-14T03:50:46.028544,15.08833505,.00013945,53.1611,126.0392,68.7609,291.3531,0,U,52344,999,23034,.62753599E-4,.711E-5,0
STARLINK-3852,2022-045Q,2026-06-14T14:01:33.093120,15.08829208,.00014183,53.1612,124.2299,86.6995,273.4159,0,U,52345,999,23039,.7377054E-5,-.171E-5,0
STARLINK-3812,2022-045R,2026-06-14T14:49:12.640224,15.08832528,.00016331,53.1611,123.9242,86.1066,274.0112,0,U,52346,999,23041,.52940043E-4,.554E-5,0
STARLINK-3826,2022-045S,2026-06-14T03:57:24.515712,15.08835912,.00014478,53.1615,125.9602,87.1288,272.9869,0,U,52347,999,23034,-.1423721E-5,-.311E-5,0
STARLINK-3829,2022-045T,2026-06-14T14:37:14.219040,15.08835239,.00014022,53.1602,123.9531,89.0258,271.0894,0,U,52348,999,23041,.47639679E-4,.47E-5,0
STARLINK-3819,2022-045U,2026-06-14T14:53:07.701792,15.08837537,.00014207,53.1612,123.9035,89.2566,270.8588,0,U,52349,999,23041,.28345387E-4,.163E-5,0
STARLINK-3754,2022-045V,2026-06-14T14:31:56.470080,15.08831463,.00014258,53.1597,123.9707,86.6723,273.4432,0,U,52350,999,23041,.22167544E-4,.65E-6,0
STARLINK-3838,2022-045X,2026-06-14T04:43:43.633920,15.08836094,.00014152,53.1602,125.8069,89.1791,270.9363,0,U,52352,999,23035,-.2042806E-4,-.613E-5,0
STARLINK-3807,2022-045Y,2026-06-14T14:26:39.494400,15.08820911,.00013319,53.1603,123.9873,86.7694,273.3450,0,U,52353,999,23041,-.48324981E-4,-.1057E-4,0
STARLINK-3877,2022-045AA,2026-06-14T04:49:02.808480,15.08834803,.00012713,53.1601,125.7899,95.0746,265.0391,0,U,52355,999,23035,.69345877E-4,.816E-5,0
STARLINK-3801,2022-045AB,2026-06-14T14:05:27.970656,15.08820377,.00013803,53.1610,124.0810,87.9338,272.1812,0,U,52356,999,23041,-.51123697E-4,-.1101E-4,0
STARLINK-3821,2022-045AC,2026-06-14T14:10:44.897088,15.08826562,.00013736,53.1600,124.0356,83.0211,277.0937,0,U,52357,999,23041,-.18240469E-4,-.578E-5,0
STARLINK-3837,2022-045AD,2026-06-14T02:36:32.569920,15.08832214,.00014585,53.1596,126.2030,90.5186,269.5972,0,U,52358,999,23034,-.7203571E-5,-.403E-5,0
STARLINK-3853,2022-045AE,2026-06-14T14:06:49.476096,15.08822831,.00011205,53.1607,124.0593,104.0192,256.0924,0,U,52359,999,23041,.70997791E-4,.842E-5,0
STARLINK-3728,2022-045AG,2026-06-14T13:54:51.997536,15.08823737,.00014625,53.1611,124.0902,113.9648,246.1497,0,U,52361,999,23041,-.8904648E-5,-.43E-5,0
