STARLINK-3750           
1 52311U 22041BC  26165.27340507  .00000517  00000+0  50566-4 0  9997
2 52311  53.1595  15.4625 0001224  80.7931 279.3199 15.08825524230445
STARLINK-3752           
1 52312U 22041BD  26165.29917759 -.00003333  00000+0 -19161-3 0  9995
2 52312  53.1603  15.2948 0001588  92.0712 268.0461 15.08803932230455
STARLINK-3749           
1 52313U 22041BE  26165.30282939  .00000217  00000+0  31704-4 0  9997
2 52313  53.1600  15.3283 0001356  83.8586 276.2560 15.08837170230458
STARLINK-3889           
1 52331U 22045A   26165.22557178  .00001143  00000+0  89935-4 0  9990
2 52331  53.1599 135.6784 0001379  95.6123 264.5026 15.08824908230216
STARLINK-3831           
1 52332U 22045B   26165.63499222  .00000213  00000+0  31483-4 0  9993
2 52332  53.1600 133.8477 0001380  87.6584 272.4566 15.08832146230279
STARLINK-3847           
1 52333U 22045C   26165.63035037  .00000371  00000+0  41378-4 0  9993
2 52333  53.1602 133.8583 0001340  87.2216 272.8929 15.08834529230267
STARLINK-3880           
1 52334U 22045D   26165.61931392  .00000005  00000+0  18429-4 0  9996
2 52334  53.1602 133.9083 0001422  87.8074 272.3080 15.08830373230269
STARLINK-3814           
1 52335U 22045E   26165.61563248  .00000118  00000+0  25504-4 0  9995
2 52335  53.1602 133.9244 0001477  85.0358 275.0802 15.08832387230274
STARLINK-3823           
1 52336U 22045F   26165.66668981  .00033678  00000+0  19031-2 0  9994
2 52336  53.1601 133.4505 0001225  34.9850  40.3899 15.12824154  5660
STARLINK-3797           
1 52337U 22045G   26165.62667165  .00000471  00000+0  47689-4 0  9991
2 52337  53.1596 133.8747 0001300  90.2585 269.8556 15.08832334230279
STARLINK-3792           
1 52339U 22045J   26165.63397721  .00004307  00000+0  28838-3 0  9998
2 52339  53.1603 133.4842 0001124 107.7549 252.3565 15.08859507230289
STARLINK-3818           
1 52340U 22045K   26165.16758868 -.00000165  00000+0  77563-5 0  9991
2 52340  53.1622 125.9376 0001482  83.4664 276.6497 15.08832870230338
STARLINK-3843           
1 52341U 22045L   26165.60091274 -.00000787  00000+0 -31396-4 0  9996
2 52341  53.1618 133.9420 0001400  90.4380 269.6771 15.08826884230274
STARLINK-3850           
1 52342U 22045M   26165.17128141  .00000180  00000+0  29382-4 0  9990
2 52342  53.1608 126.0377 0001365  89.8516 270.2632 15.08834338230346
STARLINK-3849           
1 52343U 22045N   26165.63770947  .00000539  00000+0  51984-4 0  9990
2 52343  53.1605 133.8246 0001327  89.7915 270.3229 15.08834651230289
STARLINK-3851           
1 52344U 22045P   26165.16025496  .00000711  00000+0  62754-4 0  9990
2 52344  53.1611 126.0392 0001394  68.7609 291.3531 15.08833505230347
STARLINK-3852           
1 52345U 22045Q   26165.58441080 -.00000171  00000+0  73771-5 0  9991
2 52345  53.1612 124.2299 0001418  86.6995 273.4159 15.08829208230396
STARLINK-3812           
1 52346U 22045R   26165.61750741  .00000554  00000+0  52940-4 0  9991
2 52346  53.1611 123.9242 0001633  86.1066 274.0112 15.08832528230411
STARLINK-3826           
1 52347U 22045S   26165.16486708 -.00000311  00000+0 -14237-5 0  9992
2 52347  53.1615 125.9602 0001447  87.1288 272.9869 15.08835912230346
STARLINK-3829           
1 52348U 22045T   26165.60919235  .00000470  00000+0  47640-4 0  9995
2 52348  53.1602 123.9531 0001402  89.0258 271.0894 15.08835239230419
STARLINK-3819           
1 52349U 22045U   26165.62022803  .00000163  00000+0  28345-4 0  9994
2 52349  53.1612 123.9035 0001420  89.2566 270.8588 15.08837537230414
STARLINK-3754           
1 52350U 22045V   26165.60551470  .00000065  00000+0  22168-4 0  9999
2 52350  53.1597 123.9707 0001425  86.6723 273.4432 15.08831463230414
STARLINK-3838           
1 52352U 22045X   26165.19703280 -.00000613  00000+0 -20428-4 0  9991
2 52352  53.1602 125.8069 0001415  89.1791 270.9363 15.08836094230350
STARLINK-3807           
1 52353U 22045Y   26165.60184600 -.00001057  00000+0 -48325-4 0  9996
2 52353  53.1603 123.9873 0001331  86.7694 273.3450 15.08820911230418
STARLINK-3877           
1 52355U 22045AA  26165.20072695  .00000816  00000+0  69346-4 0  9990
2 52355  53.1601 125.7899 0001271  95.0746 265.0391 15.08834803230350
STARLINK-3801           
1 52356U 22045AB  26165.58712929 -.00001101  00000+0 -51124-4 0  9998
2 52356  53.1610 124.0810 0001380  87.9338 272.1812 15.08820377230419
STARLINK-3821           
1 52357U 22045AC  26165.59079742 -.00000578  00000+0 -18240-4 0  9998
2 52357  53.1600 124.0356 0001373  83.0211 277.0937 15.08826562230417
STARLINK-3837           
1 52358U 22045AD  26165.10871030 -.00000403  00000+0 -72036-5 0  9997
2 52358  53.1596 126.2030 0001458  90.5186 269.5972 15.08832214230341
STARLINK-3853           
1 52359U 22045AE  26165.58807264  .00000842  00000+0  70998-4 0  9997
2 52359  53.1607 124.0593 0001120 104.0192 256.0924 15.08822831230419
STARLINK-3728           
1 52361U 22045AG  26165.57976849 -.00000430  00000+0 -89046-5 0  9995
2 52361  53.1611 124.0902 0001462 113.9648 246.1497 15.08823737230416
